[{"OBJECT_NAME":"SITRO-AIS 14","OBJECT_ID":"2024-199T","EPOCH":"2026-03-09T22:54:28.226304","MEAN_MOTION":14.97122201,"ECCENTRICITY":0.00071847,"INCLINATION":97.3313,"RA_OF_ASC_NODE":274.5243,"ARG_OF_PERICENTER":48.7211,"MEAN_ANOMALY":311.463,"EPHEMERIS_TYPE":0,"CLASSIFICATION_TYPE":"U","NORAD_CAT_ID":61752,"ELEMENT_SET_NO":999,"REV_AT_EPOCH":12027,"BSTAR":0.00031190269,"MEAN_MOTION_DOT":3.549e-5,"MEAN_MOTION_DDOT":0},{"OBJECT_NAME":"STARLINK-34391","OBJECT_ID":"2025-123H","EPOCH":"2026-03-09T18:12:30.422016","MEAN_MOTION":14.98336454,"ECCENTRICITY":0.00034195,"INCLINATION":70.002,"RA_OF_ASC_NODE":194.0889,"ARG_OF_PERICENTER":266.5845,"MEAN_ANOMALY":93.4923,"EPHEMERIS_TYPE":0,"CLASSIFICATION_TYPE":"U","NORAD_CAT_ID":64298,"ELEMENT_SET_NO":999,"REV_AT_EPOCH":4163,"BSTAR":0.0003828861,"MEAN_MOTION_DOT":4.479e-5,"MEAN_MOTION_DDOT":0}]
